{
  "type": "FeatureCollection",
  "features": [
    {
      "type": "Feature",
      "properties": {
        "norad_id": 66929,
        "name": "STARLINK-36169",
        "group": "last-30-days",
        "lat": -3.0549683686044102,
        "lon": 37.9904113216812,
        "alt_km": 295.51541617247403,
        "timestamp": "2025-12-14T18:52:54.244824+00:00",
        "meta_object_name": "STARLINK-36169",
        "meta_object_id": "2025-286E",
        "meta_epoch": "2025-12-13T20:00:03.000384",
        "meta_mean_motion": 15.95129878,
        "meta_eccentricity": 7.866e-05,
        "meta_inclination": 53.1574,
        "meta_ra_of_asc_node": 45.156,
        "meta_arg_of_pericenter": 59.3848,
        "meta_mean_anomaly": 223.0429,
        "meta_ephemeris_type": 0,
        "meta_classification_type": "U",
        "meta_norad_cat_id": 66929,
        "meta_element_set_no": 999,
        "meta_rev_at_epoch": 216,
        "meta_bstar": -0.0032285617,
        "meta_mean_motion_dot": -0.01292015,
        "meta_mean_motion_ddot": 0.00050263444,
        "tle_line1": "1 66929U 25286E   25347.83336806 -.01292015  50263-3 -32286-2 0  9997",
        "tle_line2": "2 66929  53.1574  45.1560 0000786  59.3848 223.0429 15.95129878  2164"
      },
      "geometry": {
        "type": "Point",
        "coordinates": [
          37.9904113216812,
          -3.0549683686044102
        ]
      }
    },
    {
      "type": "Feature",
      "properties": {
        "norad_id": 66930,
        "name": "STARLINK-36206",
        "group": "last-30-days",
        "lat": -1.8136656503223383,
        "lon": 38.919929655505285,
        "alt_km": 295.2390890872548,
        "timestamp": "2025-12-14T18:52:54.244834+00:00",
        "meta_object_name": "STARLINK-36206",
        "meta_object_id": "2025-286F",
        "meta_epoch": "2025-12-13T20:00:03.000384",
        "meta_mean_motion": 15.95201049,
        "meta_eccentricity": 8.317e-05,
        "meta_inclination": 53.1574,
        "meta_ra_of_asc_node": 45.153,
        "meta_arg_of_pericenter": 64.3978,
        "meta_mean_anomaly": 219.373,
        "meta_ephemeris_type": 0,
        "meta_classification_type": "U",
        "meta_norad_cat_id": 66930,
        "meta_element_set_no": 999,
        "meta_rev_at_epoch": 216,
        "meta_bstar": -0.0032449876,
        "meta_mean_motion_dot": -0.01303442,
        "meta_mean_motion_ddot": 0.00051112924,
        "tle_line1": "1 66930U 25286F   25347.83336806 -.01303442  51113-3 -32450-2 0  9994",
        "tle_line2": "2 66930  53.1574  45.1530 0000831  64.3978 219.3730 15.95201049  2168"
      },
      "geometry": {
        "type": "Point",
        "coordinates": [
          38.919929655505285,
          -1.8136656503223383
        ]
      }
    },
    {
      "type": "Feature",
      "properties": {
        "norad_id": 66931,
        "name": "STARLINK-36130",
        "group": "last-30-days",
        "lat": -0.34895626838287147,
        "lon": 40.01518809177503,
        "alt_km": 294.8048919390749,
        "timestamp": "2025-12-14T18:52:54.244847+00:00",
        "meta_object_name": "STARLINK-36130",
        "meta_object_id": "2025-286G",
        "meta_epoch": "2025-12-13T20:00:03.000384",
        "meta_mean_motion": 15.9528072,
        "meta_eccentricity": 7.235e-05,
        "meta_inclination": 53.1573,
        "meta_ra_of_asc_node": 45.15,
        "meta_arg_of_pericenter": 60.5969,
        "meta_mean_anomaly": 224.7311,
        "meta_ephemeris_type": 0,
        "meta_classification_type": "U",
        "meta_norad_cat_id": 66931,
        "meta_element_set_no": 999,
        "meta_rev_at_epoch": 216,
        "meta_bstar": -0.0032327053,
        "meta_mean_motion_dot": -0.01304079,
        "meta_mean_motion_ddot": 0.00051199627,
        "tle_line1": "1 66931U 25286G   25347.83336806 -.01304079  51200-3 -32327-2 0  9992",
        "tle_line2": "2 66931  53.1573  45.1500 0000723  60.5969 224.7311 15.95280720  2161"
      },
      "geometry": {
        "type": "Point",
        "coordinates": [
          40.01518809177503,
          -0.34895626838287147
        ]
      }
    },
    {
      "type": "Feature",
      "properties": {
        "norad_id": 66932,
        "name": "STARLINK-36177",
        "group": "last-30-days",
        "lat": 1.053536356478005,
        "lon": 41.06312942072458,
        "alt_km": 294.4744155572698,
        "timestamp": "2025-12-14T18:52:54.244877+00:00",
        "meta_object_name": "STARLINK-36177",
        "meta_object_id": "2025-286H",
        "meta_epoch": "2025-12-13T20:00:03.000384",
        "meta_mean_motion": 15.95362646,
        "meta_eccentricity": 8.674e-05,
        "meta_inclination": 53.1573,
        "meta_ra_of_asc_node": 45.1467,
        "meta_arg_of_pericenter": 67.7754,
        "meta_mean_anomaly": 219.0687,
        "meta_ephemeris_type": 0,
        "meta_classification_type": "U",
        "meta_norad_cat_id": 66932,
        "meta_element_set_no": 999,
        "meta_rev_at_epoch": 216,
        "meta_bstar": -0.0032537087,
        "meta_mean_motion_dot": -0.01318211,
        "meta_mean_motion_ddot": 0.00052258389,
        "tle_line1": "1 66932U 25286H   25347.83336806 -.01318211  52258-3 -32537-2 0  9993",
        "tle_line2": "2 66932  53.1573  45.1467 0000867  67.7754 219.0687 15.95362646  2165"
      },
      "geometry": {
        "type": "Point",
        "coordinates": [
          41.06312942072458,
          1.053536356478005
        ]
      }
    },
    {
      "type": "Feature",
      "properties": {
        "norad_id": 66933,
        "name": "STARLINK-36157",
        "group": "last-30-days",
        "lat": 2.4480844320059423,
        "lon": 42.10647843290319,
        "alt_km": 294.07136172269657,
        "timestamp": "2025-12-14T18:52:54.244888+00:00",
        "meta_object_name": "STARLINK-36157",
        "meta_object_id": "2025-286J",
        "meta_epoch": "2025-12-13T20:00:03.000384",
        "meta_mean_motion": 15.9544031,
        "meta_eccentricity": 8.077e-05,
        "meta_inclination": 53.1574,
        "meta_ra_of_asc_node": 45.1436,
        "meta_arg_of_pericenter": 66.392,
        "meta_mean_anomaly": 221.9393,
        "meta_ephemeris_type": 0,
        "meta_classification_type": "U",
        "meta_norad_cat_id": 66933,
        "meta_element_set_no": 999,
        "meta_rev_at_epoch": 216,
        "meta_bstar": -0.0032497922,
        "meta_mean_motion_dot": -0.01322104,
        "meta_mean_motion_ddot": 0.00052581377,
        "tle_line1": "1 66933U 25286J   25347.83336806 -.01322104  52581-3 -32498-2 0  9995",
        "tle_line2": "2 66933  53.1574  45.1436 0000807  66.3920 221.9393 15.95440310  2168"
      },
      "geometry": {
        "type": "Point",
        "coordinates": [
          42.10647843290319,
          2.4480844320059423
        ]
      }
    },
    {
      "type": "Feature",
      "properties": {
        "norad_id": 66934,
        "name": "STARLINK-36153",
        "group": "last-30-days",
        "lat": 3.8793667591604297,
        "lon": 43.180046663434105,
        "alt_km": 293.5994076323759,
        "timestamp": "2025-12-14T18:52:54.244898+00:00",
        "meta_object_name": "STARLINK-36153",
        "meta_object_id": "2025-286K",
        "meta_epoch": "2025-12-13T20:00:03.000384",
        "meta_mean_motion": 15.95509495,
        "meta_eccentricity": 6.948e-05,
        "meta_inclination": 53.1573,
        "meta_ra_of_asc_node": 45.1403,
        "meta_arg_of_pericenter": 63.6115,
        "meta_mean_anomaly": 226.2229,
        "meta_ephemeris_type": 0,
        "meta_classification_type": "U",
        "meta_norad_cat_id": 66934,
        "meta_element_set_no": 999,
        "meta_rev_at_epoch": 216,
        "meta_bstar": -0.003199212,
        "meta_mean_motion_dot": -0.01306581,
        "meta_mean_motion_ddot": 0.00051497894,
        "tle_line1": "1 66934U 25286K   25347.83336806 -.01306581  51498-3 -31992-2 0  9991",
        "tle_line2": "2 66934  53.1573  45.1403 0000694  63.6115 226.2229 15.95509495  2168"
      },
      "geometry": {
        "type": "Point",
        "coordinates": [
          43.180046663434105,
          3.8793667591604297
        ]
      }
    },
    {
      "type": "Feature",
      "properties": {
        "norad_id": 66935,
        "name": "STARLINK-36127",
        "group": "last-30-days",
        "lat": 5.455805510527202,
        "lon": 44.36835563258482,
        "alt_km": 293.2227551094966,
        "timestamp": "2025-12-14T18:52:54.244908+00:00",
        "meta_object_name": "STARLINK-36127",
        "meta_object_id": "2025-286L",
        "meta_epoch": "2025-12-13T20:00:03.000384",
        "meta_mean_motion": 15.95606943,
        "meta_eccentricity": 7.206e-05,
        "meta_inclination": 53.1573,
        "meta_ra_of_asc_node": 45.1369,
        "meta_arg_of_pericenter": 67.7305,
        "meta_mean_anomaly": 223.8098,
        "meta_ephemeris_type": 0,
        "meta_classification_type": "U",
        "meta_norad_cat_id": 66935,
        "meta_element_set_no": 999,
        "meta_rev_at_epoch": 216,
        "meta_bstar": -0.0032365083,
        "meta_mean_motion_dot": -0.01328534,
        "meta_mean_motion_ddot": 0.00053138187,
        "tle_line1": "1 66935U 25286L   25347.83336806 -.01328534  53138-3 -32365-2 0  9992",
        "tle_line2": "2 66935  53.1573  45.1369 0000720  67.7305 223.8098 15.95606943  2169"
      },
      "geometry": {
        "type": "Point",
        "coordinates": [
          44.36835563258482,
          5.455805510527202
        ]
      }
    }
  ]
}